#aV2012 10 27  0  0  0.00000000     288 DD+AD WGS84 FIT  NGA
## 1711 518400.00000000   300.00000000 56227 0.0000000000000
+   31     1  2  3  4  5  6  7  8  9 10 11 12 13 14 15 16 17
+         18 19 20 21 22 23 24 25 26 28 29 30 31 32  0  0  0
+          0  0  0  0  0  0  0  0  0  0  0  0  0  0  0  0  0
+          0  0  0  0  0  0  0  0  0  0  0  0  0  0  0  0  0
+          0  0  0  0  0  0  0  0  0  0  0  0  0  0  0  0  0
++         2  2  2  2  2  2  2  2  2  2  2  2  2  2  2  2  2
++         2  2  2  2  2  2  2  2  2  2  2  2  2  2  2  0  0
++         0  0  0  0  0  0  0  0  0  0  0  0  0  0  0  0  0
++         0  0  0  0  0  0  0  0  0  0  0  0  0  0  0  0  0
++         0  0  0  0  0  0  0  0  0  0  0  0  0  0  0  0  0
%c cc cc ccc ccc cccc cccc cccc cccc ccccc ccccc ccccc ccccc
%c cc cc ccc ccc cccc cccc cccc cccc ccccc ccccc ccccc ccccc
%f  0.0000000  0.000000000  0.00000000000  0.000000000000000
%f  0.0000000  0.000000000  0.00000000000  0.000000000000000
%i    0    0    0    0      0      0      0      0         0
%i    0    0    0    0      0      0      0      0         0
/*      NGA, ST. LOUIS,MO.                                  
/*   EPHEMERIS COMPUTED FROM  1 DAYS OF DATA
/*   EPOCHA SMOOTHER  
/* CCCCCCCCCCCCCCCCCCCCCCCCCCCCCCCCCCCCCCCCCCCCCCCCCCCCCCCCC
*  2012 10 27 19 35  0.00000000                                                 
P  1  19830.763827  14217.039251 -10583.115896    279.703601                    
V  1 -13487.641267  -1812.886418 -27707.184956      0.017202                    
P  2    266.109190 -16198.047362  21257.806415    407.201834                    
V  2  25591.963428   7477.441918   4907.359666      0.011157                    
P  3  -4601.559674  22040.800019 -14396.356329    120.348699                    
V  3 -13488.654418  11670.819066  23222.834539      0.051318                    
P  4  16672.621626  -8880.045080  18513.669475     28.745790                    
V  4  22367.360326   8987.808166 -15303.606141      0.111787                    
P  5  -1684.520972 -25897.116104   5271.722574   -362.514116                    
V  5   4519.454528   5946.300149  30655.710010     -0.026776                    
P  6 -11013.352759  21715.512720 -10113.506034    473.709611                    
V  6 -11623.008761   6987.495883  27711.625651     -0.099530                    
P  7  25704.781489   6317.678830  -3586.485647    138.493231                    
V  7   3628.671488   3447.690363  31470.800959      0.044885                    
P  8  21990.397187   -918.474923 -15199.137477      2.577390                    
V  8  17163.612689   8561.220676  23593.554838      0.002045                    
P  9 -15893.118849 -15539.449771 -15037.014916    195.473615                    
V  9  17688.159673   4153.187021 -23925.918344      0.027193                    
P 10  10733.866987 -15164.292349  18557.675087    -56.584924                    
V 10   6480.501982  23517.094610  15653.704347     -0.011539                    
P 11  15793.133492  14059.650142 -16656.718841   -317.155222                    
V 11 -20626.074333   2087.941052 -17954.467649     -0.038877                    
P 12 -11592.928940 -21122.323176  11370.216340     98.458041                    
V 12   -911.500223 -14439.188396 -27521.625877      0.020165                    
P 13  20100.443441   -561.738074  17276.338085    171.420022                    
V 13 -17018.989436  14161.470254  19997.247894     -0.026673                    
P 14 -21992.747281  14305.207943  -3394.849191    215.662937                    
V 14   2092.124318  -4733.830252 -31809.172969      0.007053                    
P 15  -5493.757050 -15551.128471 -20783.521685    -98.249395                    
V 15  19912.832869 -17491.308291   8057.075047     -0.008713                    
P 16    630.704171  25834.853898   5355.462339   -248.645837                    
V 16  -3400.853069  -6384.608862  31469.800068     -0.006272                    
P 17  21447.987133 -15091.823938  -3079.209984     84.033028                    
V 17  -1318.868501   4921.011339 -31652.305068     -0.034680                    
P 18 -16197.395950  -2378.410658 -20585.883297    221.748897                    
V 18  -4803.284237 -26659.614224   6383.929436      0.018412                    
P 19   1911.378028  16585.368431 -20637.540213   -316.789407                    
V 19 -21580.272260  14791.331925  10317.087248     -0.034902                    
P 20  14266.651843  18806.741420  12080.633611     71.678391                    
V 20    961.908339  15919.165994 -25497.331778      0.010364                    
P 21 -25765.572650  -3755.088924  -6046.650677   -258.541142                    
V 21  -6829.479937  -5629.904429  29474.821758     -0.023685                    
P 22 -12158.518315  13182.906116 -19366.745365    150.124890                    
V 22  -6632.653548 -24325.890383 -12403.684837      0.005387                    
P 23  11999.369196   9749.287995  21677.803260    150.021816                    
V 23 -20526.175165  18107.484251   2846.694912     -0.038899                    
P 24  23083.409324  -2503.044736 -13374.989646      2.841466                    
V 24  15271.039893   7012.048646  25037.027045      0.016050                    
P 25 -15598.829940  -9469.342816  19282.978113     48.353402                    
V 25  -4145.300194 -24194.466073 -15139.283919      0.016856                    
P 26   7359.925038 -19558.501248 -16799.503751   -231.175623                    
V 26  17091.877443 -10975.065870  21398.844969      0.135427                    
P 28  12744.940186  -8975.089893 -20903.878498    199.044214                    
V 28   5096.068789  27397.563802  -8637.046702      0.036731                    
P 29 -18744.668813  -1509.137591  18792.166781    370.695044                    
V 29  17499.443178 -16133.733382  16240.697113      0.040568                    
P 30  -4229.450324  21230.268256  15049.048946   -345.790593                    
V 30  -8001.751014 -18160.504807  22809.471684      0.165333                    
P 31 -13262.201935  10177.420007  20892.685504    283.264222                    
V 31 -24320.694282  -9123.653858 -10851.656848      0.022724                    
P 32   6929.838718  25404.048469   5316.721421   -502.323740                    
V 32  -1791.270746   6707.619508 -30262.110324     -0.036726                    
EOF
